ONEWEB-0271             
1 48989U 21060Y   25324.55919262  .00000060  00000+0  12268-3 0  9999
2 48989  87.9032 270.3161 0002114  82.0746 278.0625 13.16593262212210
ONEWEB-0272             
1 48990U 21060Z   25324.58135416 -.00000162  00000+0 -45786-3 0  9991
2 48990  87.9014 270.3306 0002026  85.5053 274.6309 13.16592370212168
ONEWEB-0273             
1 48991U 21060AA  25324.60353257  .00000061  00000+0  12571-3 0  9992
2 48991  87.9021 270.3197 0002081  78.8235 281.3130 13.16593950212143
ONEWEB-0274             
1 48992U 21060AB  25324.55285219  .00000078  00000+0  17059-3 0  9993
2 48992  87.9012 270.3549 0001855  90.5869 269.5475 13.16592897212179
ONEWEB-0275             
1 48993U 21060AC  25324.38977321  .00000152  00000+0  36523-3 0  9997
2 48993  87.9021 270.3558 0001924  81.8950 278.2399 13.16592841212082
ONEWEB-0276             
1 48994U 21060AD  25324.57501873  .00000102  00000+0  23230-3 0  9990
2 48994  87.9021 270.3179 0002046  75.1686 284.9671 13.16593261212129
ONEWEB-0277             
1 48995U 21060AE  25324.35970602 -.00000006  00000+0 -48372-4 0  9997
2 48995  87.9010 270.3876 0002032  85.3453 274.7910 13.16597634212088
ONEWEB-0278             
1 48996U 21060AF  25324.57819940 -.00000048  00000+0 -15832-3 0  9999
2 48996  87.9021 270.3139 0001811  73.2541 286.8788 13.16594691212246
ONEWEB-0279             
1 48997U 21060AG  25324.58611530 -.00000009  00000+0 -57300-4 0  9990
2 48997  87.9024 270.3098 0002145  85.6146 274.5230 13.16592685212172
ONEWEB-0280             
1 48998U 21060AH  25324.60114372  .00000038  00000+0  65791-4 0  9999
2 48998  87.9020 270.3131 0002108  71.0419 289.0941 13.16596549212115
ONEWEB-0281             
1 48999U 21060AJ  25324.60669810  .00000142  00000+0  33786-3 0  9996
2 48999  87.9020 270.3077 0001787  82.2222 277.9112 13.16594983212186
ONEWEB-0282             
1 49000U 21060AK  25324.56078028  .00000067  00000+0  14266-3 0  9998
2 49000  87.9024 270.3275 0002059  78.7646 281.3716 13.16594064212153
ONEWEB-0283             
1 49001U 21060AL  25324.54970083  .00000062  00000+0  12901-3 0  9998
2 49001  87.9022 270.3303 0002016  82.0674 278.0685 13.16594680212169
ONEWEB-0284             
1 49002U 21060AM  25324.54336536  .00000136  00000+0  32196-3 0  9998
2 49002  87.9030 270.3193 0001977  67.8714 292.2627 13.16594690212140
ONEWEB-0285             
1 49075U 21075A   25324.62789670  .00000178  00000+0  46034-3 0  9996
2 49075  87.8964  32.0913 0001814  99.2084 260.9249 13.12443451207855
ONEWEB-0286             
1 49076U 21075B   25324.22858646 -.00000394  00000+0 -11314-2 0  9997
2 49076  87.8962  32.2048 0001599 104.8357 255.2949 13.12442840207159
ONEWEB-0287             
1 49077U 21075C   25324.49404808 -.00000379  00000+0 -10104-2 0  9993
2 49077  87.9139  47.3636 0001205 105.2781 254.8484 13.17649653206140
ONEWEB-0288             
1 49078U 21075D   25324.66182770  .00000069  00000+0  15724-3 0  9992
2 49078  87.8965  32.0799 0001691  96.1215 264.0106 13.12441189207837
ONEWEB-0289             
1 49079U 21075E   25324.53272161  .00000015  00000+0  44109-5 0  9995
2 49079  87.9131  47.3738 0001827  88.7559 271.3782 13.17652004206728
ONEWEB-0290             
1 49080U 21075F   25324.65774330  .00000040  00000+0  70515-4 0  9992
2 49080  87.9136  47.3089 0002143  88.7476 271.3901 13.17648612206154
ONEWEB-0291             
1 49081U 21075G   25324.64254645 -.00000010  00000+0 -57652-4 0  9990
2 49081  87.9141  47.3183 0001443  92.5738 267.5559 13.17647013206141
ONEWEB-0293             
1 49082U 21075H   25324.66785662  .00000040  00000+0  69103-4 0  9996
2 49082  87.9130  47.3361 0001753  97.6473 262.4857 13.17647049206171
ONEWEB-0294             
1 49083U 21075J   25324.66831072 -.00000144  00000+0 -43486-3 0  9996
2 49083  87.8968  32.0792 0001867  85.6421 274.4921 13.12441342207220
ONEWEB-0295             
1 49084U 21075K   25324.66701934  .00000025  00000+0  30566-4 0  9992
2 49084  87.9127  47.3408 0001414  96.1423 263.9870 13.17650537206137
ONEWEB-0296             
1 49085U 21075L   25324.19143242  .00000475  00000+0  12839-2 0  9993
2 49085  87.8968  32.1792 0001496  87.6897 272.4403 13.12442533207169
ONEWEB-0297             
1 49086U 21075M   25324.45095223 -.00000355  00000+0 -10214-2 0  9992
2 49086  87.8958  32.1609 0001670 100.8977 259.2339 13.12441925207803
ONEWEB-0298             
1 49087U 21075N   25324.67136902  .00000075  00000+0  16116-3 0  9992
2 49087  87.9131  47.3367 0001765 103.9817 256.1511 13.17647010206163
ONEWEB-0299             
1 49088U 21075P   25324.67292347  .00000046  00000+0  84091-4 0  9995
2 49088  87.9140  47.2962 0001541 103.1647 256.9656 13.17647072206143
ONEWEB-0300             
1 49089U 21075Q   25324.59531866 -.00000236  00000+0 -69219-3 0  9996
2 49089  87.8969  32.0902 0001877 110.8463 249.2866 13.12441411207841
ONEWEB-0301             
1 49090U 21075R   25324.65533442  .00000248  00000+0  65419-3 0  9996
2 49090  87.8967  32.0808 0001960 112.6553 247.4783 13.12440633207213
ONEWEB-0302             
1 49091U 21075S   25324.64236353  .00000502  00000+0  13600-2 0  9994
2 49091  87.8966  32.0910 0001749  90.4282 269.7047 13.12442684207199
ONEWEB-0304             
1 49092U 21075T   25324.49573669  .00000008  00000+0 -13009-4 0  9999
2 49092  87.9140  47.3622 0001618 100.3815 259.7499 13.17647136206094
ONEWEB-0305             
1 49093U 21075U   25324.64086456 -.00000486  00000+0 -12841-2 0  9992
2 49093  87.9142  47.3104 0000977  84.7246 275.3997 13.17650610206146
ONEWEB-0308             
1 49094U 21075V   25324.63586220  .00000410  00000+0  11029-2 0  9998
2 49094  87.8964  32.0852 0001777 100.6498 259.4831 13.12442345207202
ONEWEB-0309             
1 49095U 21075W   25324.64423583 -.00000292  00000+0 -78587-3 0  9995
2 49095  87.9139  47.3254 0001797  87.7308 272.4029 13.17649001206116
ONEWEB-0310             
1 49096U 21075X   25324.65047084  .00000423  00000+0  11416-2 0  9996
2 49096  87.8964  32.1215 0001752  94.7147 265.4182 13.12442020207830
ONEWEB-0311             
1 49097U 21075Y   25324.49911514 -.00000052  00000+0 -16753-3 0  9997
2 49097  87.9137  47.3506 0001388 107.8808 252.2475 13.17649448206140
ONEWEB-0312             
1 49098U 21075Z   25324.66617406  .00000096  00000+0  21499-3 0  9999
2 49098  87.9128  47.3451 0001423  93.3477 266.7817 13.17647082206143
ONEWEB-0313             
1 49099U 21075AA  25324.67111551  .00000329  00000+0  81429-3 0  9999
2 49099  87.9137  47.3518 0001606 102.7961 257.3350 13.17647570206133
ONEWEB-0314             
1 49100U 21075AB  25324.63748507 -.00000355  00000+0 -94732-3 0  9997
2 49100  87.9137  47.3078 0001372  94.2146 265.9142 13.17649058206101
ONEWEB-0315             
1 49101U 21075AC  25324.62452104  .00000046  00000+0  92543-4 0  9996
2 49101  87.8962  32.0739 0001478 109.9698 250.1590 13.12443818207818
ONEWEB-0316             
1 49102U 21075AD  25324.57435675 -.00000201  00000+0 -54264-3 0  9997
2 49102  87.9208  16.9025 0001765 100.3798 259.7533 13.18684809209713
ONEWEB-0317             
1 49103U 21075AE  25324.61802512 -.00000153  00000+0 -45968-3 0  9998
2 49103  87.8968  32.0923 0002387  86.8078 273.3323 13.12443226207832
ONEWEB-0318             
1 49104U 21075AF  25324.41930642 -.00000817  00000+0 -21058-2 0  9993
2 49104  87.9206  16.9205 0001606 101.3636 258.7676 13.18692541209651
ONEWEB-0319             
1 49105U 21075AG  25324.50079946  .00000017  00000+0  11122-4 0  9998
2 49105  87.9129  47.3719 0001332 106.2467 253.8811 13.17647465206126
ONEWEB-0323             
1 49106U 21075AH  25324.45581647 -.00000367  00000+0 -10551-2 0  9992
2 49106  87.8966  32.1112 0001068 105.9495 254.1751 13.12442844207179
ONEWEB-0329             
1 49107U 21075AJ  25324.50924543 -.00001442  00000+0 -37466-2 0  9994
2 49107  87.9125  47.3724 0001773  95.8474 264.2859 13.17655027206109
ONEWEB-0330             
1 49108U 21075AK  25324.66195347  .00000021  00000+0  21524-4 0  9994
2 49108  87.9129  47.3472 0001622  93.8945 266.2372 13.17650999206169
ONEWEB-0292             
1 49186U 21083A   25324.13424056 -.00000174  00000+0 -51272-3 0  9996
2 49186  87.8995   1.8151 0001684  99.0711 261.0609 13.13469878203489
ONEWEB-0303             
1 49187U 21083B   25324.18837692 -.00000284  00000+0 -75293-3 0  9997
2 49187  87.9211  16.9675 0001634 101.3366 258.7950 13.18685724202439
ONEWEB-0306             
1 49188U 21083C   25324.17848223 -.00000311  00000+0 -82068-3 0  9998
2 49188  87.9207  16.9542 0002042  95.6370 264.4995 13.18685813202478
ONEWEB-0307             
1 49189U 21083D   25324.12830245 -.00000113  00000+0 -34473-3 0  9996
2 49189  87.8989   1.8083 0001817  96.8380 263.2956 13.13468230203484
ONEWEB-0320             
1 49190U 21083E   25324.18590436  .00000038  00000+0  62735-4 0  9996
2 49190  87.9208  16.9829 0001851  99.1437 260.9904 13.18687877202439
ONEWEB-0321             
1 49191U 21083F   25324.03642352 -.00000020  00000+0 -82179-4 0  9993
2 49191  87.9185 316.1452 0002138  85.4664 274.6714 13.20773379209221
ONEWEB-0322             
1 49192U 21083G   25324.12408254 -.00000056  00000+0 -18885-3 0  9996
2 49192  87.8995   1.8103 0002334  97.3397 262.7998 13.13469028203472
ONEWEB-0324             
1 49193U 21083H   25324.17188298  .00000116  00000+0  26227-3 0  9999
2 49193  87.9207  16.9626 0001764  93.6309 266.5025 13.18689345202456
ONEWEB-0325             
1 49194U 21083J   25324.17519181  .00000082  00000+0  17409-3 0  9993
2 49194  87.9209  16.9805 0001882  99.3568 260.7777 13.18684959202466
ONEWEB-0326             
1 49195U 21083K   25324.19016325 -.00000259  00000+0 -68867-3 0  9990
2 49195  87.9208  16.9649 0001585 107.1315 252.9991 13.18685726202453
ONEWEB-0327             
1 49196U 21083L   25324.18988563  .00000009  00000+0 -10329-4 0  9995
2 49196  87.9199  16.9862 0001668 110.4467 249.6844 13.18688874202476
